[{"OBJECT_NAME":"ORBCOMM FM06","OBJECT_ID":"1997-084G","EPOCH":"2026-03-09T15:06:31.906944","MEAN_MOTION":14.47270413,"ECCENTRICITY":0.0001937,"INCLINATION":45.0122,"RA_OF_ASC_NODE":171.8858,"ARG_OF_PERICENTER":196.1809,"MEAN_ANOMALY":301.713,"EPHEMERIS_TYPE":0,"CLASSIFICATION_TYPE":"U","NORAD_CAT_ID":25118,"ELEMENT_SET_NO":999,"REV_AT_EPOCH":47996,"BSTAR":0.00064878,"MEAN_MOTION_DOT":2.251e-5,"MEAN_MOTION_DDOT":0},{"OBJECT_NAME":"SCOUT A DEB","OBJECT_ID":"1966-041F","EPOCH":"2026-03-09T22:47:14.274528","MEAN_MOTION":14.52217132,"ECCENTRICITY":0.00436137,"INCLINATION":90.204,"RA_OF_ASC_NODE":72.1655,"ARG_OF_PERICENTER":90.4103,"MEAN_ANOMALY":270.2103,"EPHEMERIS_TYPE":0,"CLASSIFICATION_TYPE":"U","NORAD_CAT_ID":4555,"ELEMENT_SET_NO":999,"REV_AT_EPOCH":40952,"BSTAR":0.00094135037,"MEAN_MOTION_DOT":3.878e-5,"MEAN_MOTION_DDOT":0}]
